INTELSAT 35E (IS-35E)   
1 42818U 17041A   22315.83243690 -.00000228  00000+0  00000+0 0  9995
2 42818   0.0129 284.5895 0001842 308.9069  82.6607  1.00271953 19634
COSMOS 2520             
1 42907U 17046A   22314.94724678  .00000145  00000+0  00000+0 0  9997
2 42907   0.0573  89.1712 0000122 232.3797 114.5824  1.00274475 19213
TDRS 13                 
1 42915U 17047A   22316.44632872 -.00000092  00000+0  00000+0 0  9990
2 42915   4.2774 334.9896 0013738 123.4168 102.4677  1.00272837 19216
QZS-3 (MICHIBIKI-3)     
1 42917U 17048A   22316.10674319 -.00000338  00000+0  00000+0 0  9991
2 42917   0.0540 197.9630 0002330  53.1350 325.6000  1.00270753 19207
AMAZONAS 5              
1 42934U 17053A   22316.03383014 -.00000273  00000+0  00000+0 0  9995
2 42934   0.0327 317.3154 0004165 303.5978 101.4415  1.00271409 18965
ASIASAT 9               
1 42942U 17057A   22314.31696557 -.00000351  00000+0  00000+0 0  9993
2 42942   0.0123  84.5595 0002857 140.2126  60.9059  1.00269795 18752
INTELSAT 37E (IS-37E)   
1 42950U 17059A   22316.44632872 -.00000131  00000+0  00000+0 0  9996
2 42950   0.0128 300.8987 0002952 291.4144 321.9448  1.00271687 18889
BSAT-4A                 
1 42951U 17059B   22314.38626167 -.00000342  00000+0  00000+0 0  9992
2 42951   0.0848  72.4464 0000901 251.8087 334.1888  1.00271423 18612
QZS-4 (MICHIBIKI-4)     
1 42965U 17062A   22315.71585465 -.00000342  00000+0  00000+0 0  9994
2 42965  40.7317   0.2311 0750830 270.6616 176.0248  1.00266614 18641
SES-11 (ECHOSTAR 105)   
1 42967U 17063A   22316.16134660 -.00000080  00000+0  00000+0 0  9993
2 42967   0.0140 292.4866 0002968 309.0432 122.9075  1.00272217 18645
KOREASAT 5A             
1 42984U 17067A   22316.25206685 -.00000349  00000+0  00000+0 0  9991
2 42984   0.0104 320.6734 0002193 271.8513  22.7642  1.00270873 18461
ALCOMSAT 1              
1 43039U 17078A   22316.12271788 -.00000177  00000+0  00000+0 0  9996
2 43039   0.0567 122.3070 0002616 109.3577 198.9628  1.00269800 18111
SBIRS GEO-3 (USA 282)   
1 43162U 18009A   22316.40068307 -.00000284  00000+0  00000+0 0  9999
2 43162   3.2713 321.0000 0002631 270.4889 103.2904  1.00272158 17676
AL YAH 3                
1 43174U 18012A   22316.44051745 -.00000145  00000+0  00000+0 0  9994
2 43174   0.1643  93.8624 0002763 158.5631 297.6333  1.00271885 17670
SES-14                  
1 43175U 18012B   22316.36355080 -.00000269  00000+0  00000+0 0  9992
2 43175   0.0160 300.8895 0001370 293.3140 260.6757  1.00274374 17880
GOES 17                 
1 43226U 18022A   22316.56636052  .00000108  00000+0  00000+0 0  9994
2 43226   0.0147 271.7605 0000637 335.6775 230.8117  1.00272476 17279
HISPASAT 30W-6          
1 43228U 18023A   22316.43877416 -.00000206  00000+0  00000+0 0  9994
2 43228   0.0479  43.8087 0002839 206.7682 288.9926  1.00274543 17338
SUPERBIRD-B3            
1 43271U 18033A   22316.55188250 -.00000082  00000+0  00000+0 0  9999
2 43271   0.0416 108.4037 0001280 142.1353 161.8165  1.00272084 16888
HYLAS 4                 
1 43272U 18033B   22316.11091122 -.00000224  00000+0  00000+0 0  9991
2 43272   0.0427 273.4708 0002076 324.5238 179.6796  1.00271764 16905
IRNSS-1I                
1 43286U 18035A   22315.45155644  .00000107  00000+0  00000+0 0  9993
2 43286  29.3998  94.9688 0021388 178.3371 354.8837  1.00275835 16906
USA 283                 
1 43339U 18036A   22311.64007963 -.00000314  00000+0  00000+0 0  9991
2 43339   0.0215 264.2273 0001072   4.3565 142.7883  1.00270979  5532
COSMOS 2526             
1 43432U 18037A   22316.02549258 -.00000335  00000+0  00000+0 0  9994
2 43432   0.0174 128.1350 0000145 295.7914 124.4896  1.00274573 16793
APSTAR 6C               
1 43450U 18041A   22315.71646549 -.00000309  00000+0  00000+0 0  9996
2 43450   0.0086 287.2373 0002525 297.2564 218.2725  1.00269153 16677
BANGABANDHUSAT-1        
1 43463U 18044A   22315.85952234 -.00000353  00000+0  00000+0 0  9998
2 43463   0.0099 291.1779 0002562 302.2675 246.0791  1.00272713 16544
SES-12                  
1 43488U 18049A   22316.12896708 -.00000260  00000+0  00000+0 0  9991
2 43488   0.0464  79.7564 0002622 181.3982 291.5402  1.00270829 16240
FENGYUN 2H              
1 43491U 18050A   22316.53221497 -.00000116  00000+0  00000+0 0  9999
2 43491   1.5201  94.3380 0003373  78.0956 149.8653  1.00270537 16345
BEIDOU IGSO-7           
1 43539U 18057A   22315.53462459 -.00000072  00000+0  00000+0 0  9994
2 43539  55.0895 174.4307 0051260 226.1767 316.6751  1.00265574 15981
TELSTAR 19V             
1 43562U 18059A   22314.38680979 -.00000272  00000+0  00000+0 0  9995
2 43562   0.0201 211.7052 0002733 333.9038 300.1801  1.00271850 15987
TELKOM 4 (MERAH PUTIH)  
1 43587U 18064A   22316.42618921 -.00000335  00000+0  00000+0 0  9993
2 43587   0.0178 286.1166 0001425 314.8885  71.9751  1.00273254 15699
TELSTAR 18V (APSTAR 5C) 
1 43611U 18069A   22316.41507767 -.00000284  00000+0  00000+0 0  9993
2 43611   0.0184 289.3217 0002019 302.9945 106.6576  1.00271145 15442
AZERSPACE 2 (IS-38)     
1 43632U 18074A   22316.52550326  .00000146  00000+0  00000+0 0  9999
2 43632   0.0174 282.4247 0001610 318.0233  45.5133  1.00270872 15272
HORIZONS-3E             
1 43633U 18074B   22316.55402213 -.00000021  00000+0  00000+0 0  9997
2 43633   0.0458  94.0354 0001784 198.0646 128.0304  1.00269521 15164
AEHF-4 (USA 288)        
1 43651U 18079A   22316.50301471 -.00000266  00000+0  00000+0 0  9992
2 43651   2.2826 318.7543 0004162 265.2922 301.0529  1.00267079 15124
BEIDOU-3 G1             
1 43683U 18085A   22316.56091243 -.00000267  00000+0  00000+0 0  9994
2 43683   1.0785 144.4550 0004723  61.9296 187.2226  1.00276058 14887
GSAT-29                 
1 43698U 18089A   22316.45952319  .00000095  00000+0  00000+0 0  9990
2 43698   0.0472 104.3211 0003927 128.7206  39.0701  1.00269505 14658
ES'HAIL 2               
1 43700U 18090A   22316.09979990  .00000154  00000+0  00000+0 0  9996
2 43700   0.0055 310.6283 0001543 304.1810 218.1491  1.00274144 14755
GEO-KOMPSAT-2A          
1 43823U 18100A   22316.47032786 -.00000334  00000+0  00000+0 0  9990
2 43823   0.0580  94.7011 0000649  65.6748 188.8149  1.00272571 14494
GSAT-11                 
1 43824U 18100B   22316.53125615 -.00000068  00000+0  00000+0 0  9996
2 43824   0.0170 273.9062 0003794 222.0505 180.9719  1.00272993 14462
GSAT-7A                 
1 43864U 18105A   22315.78105222  .00000034  00000+0  00000+0 0  9995
2 43864   0.0875  97.2794 0002371 140.2913 157.3551  1.00275321 14281
COSMOS 2533             
1 43867U 18107A   22315.54841090 -.00000030  00000+0  00000+0 0  9991
2 43867   0.0466  76.9659 0000177  40.2287 200.9196  1.00272129 14248
TJS-3                   
1 43874U 18110A   22315.86230047 -.00000208  00000+0  00000+0 0  9999
2 43874   0.0510  56.2508 0003004 235.8085 157.9647  1.00272839 14251
CHINASAT 2D (ZX 2D)     
1 43920U 19001A   22315.85118865 -.00000328  00000+0  00000+0 0  9996
2 43920   0.0038  41.7387 0001184 265.8795 179.8322  1.00270450 40912
HELLAS-SAT 4 & SGS-1    
1 44034U 19007A   22315.78660362  .00000162  00000+0  00000+0 0  9990
2 44034   0.0650 119.7114 0005266  55.5131 197.8948  1.00270131 14186
GSAT-31                 
1 44035U 19007B   22315.78660362  .00000134  00000+0  00000+0 0  9990
2 44035   0.0228 270.5132 0005108 332.8262 138.6419  1.00270246 13806
NUSANTARA SATU          
1 44048U 19009A   22315.84563417 -.00000225  00000+0  00000+0 0  9998
2 44048   0.0147 289.2454 0002145 304.1811 267.9930  1.00271167 13609
CHINASAT 6C (ZX 6C)     
1 44067U 19012A   22315.08174275 -.00000328  00000+0  00000+0 0  9993
2 44067   0.0465 271.5511 0003728  13.0944 285.0088  1.00268518 13557
WGS 10 (USA 291)        
1 44071U 19014A   22316.15118936  .00000056  00000+0  00000+0 0  9998
2 44071   0.0110 308.1559 0000682 339.4964 238.3609  1.00271278 13446
TIANLIAN 2-01           
1 44076U 19017A   22315.86299491 -.00000126  00000+0  00000+0 0  9998
2 44076   0.0493 274.7928 0033595 244.9879 281.8526  1.00269744 13443
ARABSAT-6A              
1 44186U 19021A   22316.52253966  .00000163  00000+0  00000+0 0  9996
2 44186   0.0414 334.7568 0006316 280.8026  14.7155  1.00272926 12995
BEIDOU-3 IGSO-1         
1 44204U 19023A   22315.54738252 -.00000228  00000+0  00000+0 0  9999
2 44204  56.7796  51.4001 0024131 191.5454 123.8405  1.00265251 13185
BEIDOU-2 G8             
1 44231U 19027A   22316.61891115 -.00000237  00000+0  00000+0 0  9990
2 44231   1.2184  79.8397 0006494 131.2720 207.9756  1.00269561 12902
YAMAL 601               
1 44307U 19031A   22314.88730007  .00000128  00000+0  00000+0 0  9996
2 44307   0.0099 243.6862 0002254 345.1497 189.6363  1.00273486 12757
AT&T T-16               
1 44333U 19034A   22316.45076387 -.00000107  00000+0  00000+0 0  9995
2 44333   0.0574  98.9804 0000897 133.4032 240.6265  1.00277561 12460
EUTELSAT 7C             
1 44334U 19034B   22315.84979851  .00000058  00000+0  00000+0 0  9990
2 44334   0.0610 245.2109 0003222 333.1447 145.5621  1.00271318 12936
BEIDOU-3 IGSO-2         
1 44337U 19035A   22315.51368822 -.00000072  00000+0  00000+0 0  9995
2 44337  55.1254 170.4162 0025627 189.1325 354.5685  1.00259199 12529
COSMOS 2539             
1 44457U 19048A   22315.58631340  .00000091  00000+0  00000+0 0  9997
2 44457   0.0601  96.0725 0000375 245.7877 291.9297  1.00272548 12053
EDRS-C                  
1 44475U 19049A   22315.77203598  .00000164  00000+0  00000+0 0  9990
2 44475   0.0541 263.8448 0000762 310.4033 145.7760  1.00272404 12025
INTELSAT 39 (IS-39)     
1 44476U 19049B   22315.78105222  .00000042  00000+0  00000+0 0  9992
2 44476   0.0138 282.3611 0000269 238.6119 233.0726  1.00270545 11963
AMOS-17                 
1 44479U 19050A   22316.51983755  .00000119  00000+0  00000+0 0  9999
2 44479   0.0161 324.0712 0001959 274.6596  17.0747  1.00269890 12015
AEHF-5 (USA 292)        
1 44481U 19051A   22315.04979767  .00000092  00000+0  00000+0 0  9998
2 44481   4.0101 304.3741 0039884 348.6474 189.5360  1.00265750 12088
